[{"OBJECT_NAME":"STARLINK-34979","OBJECT_ID":"2025-179V","EPOCH":"2026-03-09T16:26:15.786816","MEAN_MOTION":15.05648512,"ECCENTRICITY":8.763e-5,"INCLINATION":97.6021,"RA_OF_ASC_NODE":112.898,"ARG_OF_PERICENTER":165.1317,"MEAN_ANOMALY":194.9936,"EPHEMERIS_TYPE":0,"CLASSIFICATION_TYPE":"U","NORAD_CAT_ID":65254,"ELEMENT_SET_NO":999,"REV_AT_EPOCH":3181,"BSTAR":5.3922991e-5,"MEAN_MOTION_DOT":7.17e-6,"MEAN_MOTION_DDOT":0},{"OBJECT_NAME":"TITAN 4B R\/B","OBJECT_ID":"2000-047B","EPOCH":"2026-03-09T21:29:16.286496","MEAN_MOTION":15.09565128,"ECCENTRICITY":0.00386241,"INCLINATION":67.9901,"RA_OF_ASC_NODE":39.932,"ARG_OF_PERICENTER":35.1583,"MEAN_ANOMALY":325.2103,"EPHEMERIS_TYPE":0,"CLASSIFICATION_TYPE":"U","NORAD_CAT_ID":26474,"ELEMENT_SET_NO":999,"REV_AT_EPOCH":39294,"BSTAR":0.00034805691,"MEAN_MOTION_DOT":5.567e-5,"MEAN_MOTION_DDOT":0}]
